[{"OBJECT_NAME":"STARLINK-3180","OBJECT_ID":"2022-005AK","EPOCH":"2026-03-09T21:57:57.148992","MEAN_MOTION":15.0882725,"ECCENTRICITY":0.00011965,"INCLINATION":53.2175,"RA_OF_ASC_NODE":298.107,"ARG_OF_PERICENTER":82.1941,"MEAN_ANOMALY":277.9187,"EPHEMERIS_TYPE":0,"CLASSIFICATION_TYPE":"U","NORAD_CAT_ID":51137,"ELEMENT_SET_NO":999,"REV_AT_EPOCH":22877,"BSTAR":0.00012569288,"MEAN_MOTION_DOT":1.712e-5,"MEAN_MOTION_DDOT":0},{"OBJECT_NAME":"MINOTAUR 4 R\/B","OBJECT_ID":"2020-046E","EPOCH":"2026-03-09T23:21:28.488960","MEAN_MOTION":15.06543892,"ECCENTRICITY":0.00095926,"INCLINATION":53.9792,"RA_OF_ASC_NODE":306.0413,"ARG_OF_PERICENTER":86.078,"MEAN_ANOMALY":274.1318,"EPHEMERIS_TYPE":0,"CLASSIFICATION_TYPE":"U","NORAD_CAT_ID":45877,"ELEMENT_SET_NO":999,"REV_AT_EPOCH":23396,"BSTAR":0.00016618262,"MEAN_MOTION_DOT":2.204e-5,"MEAN_MOTION_DDOT":0}]
